NORAD_CAT_ID,OBJECT_NAME,OBJECT_TYPE,EPOCH,MEAN_MOTION,ECCENTRICITY,INCLINATION,RA_OF_ASC_NODE,ARG_OF_PERICENTER,MEAN_ANOMALY,BSTAR,MEAN_MOTION_DOT,MEAN_MOTION_DDOT,TLE_LINE0,TLE_LINE1,TLE_LINE2,SEMIMAJOR_AXIS,PERIOD,APOGEE,PERIGEE,DECAYED
53932.0,STARLINK-4772,PAYLOAD,2024-05-10 18:55:22,15.08838478,0.000202,53.2196,57.5453,73.3598,286.7615,0.00023763,3.496e-05,0.0,0 STARLINK-4772,1 53932U 22119AY  24131.78845714  .00003496  00000-0  23763-3 0  9998,2 53932  53.2196  57.5453 0002020  73.3598 286.7615 15.08838478 90789,6917.885,95.438,541.147,538.353,0.0
53932.0,STARLINK-4772,PAYLOAD,2024-05-11 04:27:40,15.08876856,0.0001796,53.2174,55.7541,126.7623,233.3534,0.00086369,0.00013498,0.0,0 STARLINK-4772,1 53932U 22119AY  24132.18588117  .00013498  00000-0  86369-3 0  9998,2 53932  53.2174  55.7541 0001796 126.7623 233.3534 15.08876856 90841,6917.768,95.435,540.875,538.39,0.0
53932.0,STARLINK-4772,PAYLOAD,2024-05-11 12:24:34,15.08928136,0.0001327,53.2197,54.2706,55.4225,304.6893,0.0024763,0.00039438,0.0,0 STARLINK-4772,1 53932U 22119AY  24132.51706322  .00039438  00000-0  24763-2 0  9996,2 53932  53.2197  54.2706 0001327  55.4225 304.6893 15.08928136 90893,6917.611,95.432,540.394,538.558,0.0
53932.0,STARLINK-4772,PAYLOAD,2024-05-11 18:46:07,15.08865711,8.48e-05,53.2191,53.0809,56.1287,303.9785,-0.00026639,-4.528e-05,0.0,0 STARLINK-4772,1 53932U 22119AY  24132.78202669 -.00004528  00000-0 -26639-3 0  9999,2 53932  53.2191  53.0809 0000848  56.1287 303.9785 15.08865711 90937,6917.802,95.436,540.253,539.08,0.0
53932.0,STARLINK-4772,PAYLOAD,2024-05-11 21:56:54,15.08808788,0.0001592,53.2197,52.4865,5.2467,354.8541,-0.0022784,-0.00036335,0.0,0 STARLINK-4772,1 53932U 22119AY  24132.91451859 -.00036335  00000-0 -22784-2 0  9998,2 53932  53.2197  52.4865 0001592   5.2467 354.8541 15.08808788 91386,6917.976,95.44,540.942,538.739,0.0
53932.0,STARLINK-4772,PAYLOAD,2024-05-12 04:18:30,15.08683448,0.0002005,53.2187,51.2974,82.2755,277.8464,-0.0040105,-0.00063285,0.0,0 STARLINK-4772,1 53932U 22119AY  24133.17951744 -.00063285  00000-0 -40105-2 0  9996,2 53932  53.2187  51.2974 0002005  82.2755 277.8464 15.08683448 90996,6918.359,95.447,541.611,538.837,0.0
53932.0,STARLINK-4772,PAYLOAD,2024-05-12 05:53:54,15.08657136,0.0001516,53.2186,50.9958,88.1144,272.0022,-0.0037277,-0.00058836,0.0,0 STARLINK-4772,1 53932U 22119AY  24133.24576861 -.00058836  00000-0 -37277-2 0  9999,2 53932  53.2186  50.9958 0001516  88.1144 272.0022 15.08657136 91001,6918.439,95.449,541.353,539.256,0.0
53932.0,STARLINK-4772,PAYLOAD,2024-05-12 21:47:48,15.08759737,0.0002161,53.2185,48.0258,83.8055,276.3183,0.002151,0.00034036,0.0,0 STARLINK-4772,1 53932U 22119AY  24133.90820216  .00034036  00000-0  21510-2 0  9995,2 53932  53.2185  48.0258 0002161  83.8055 276.3183 15.08759737 91534,6918.126,95.443,541.486,538.496,0.0
53932.0,STARLINK-4772,PAYLOAD,2024-05-13 02:33:57,15.08901057,0.0001781,53.2182,47.1306,82.579,277.5405,0.0037069,0.00059303,0.0,0 STARLINK-4772,1 53932U 22119AY  24134.10691105  .00059303  00000-0  37069-2 0  9991,2 53932  53.2182  47.1306 0001781  82.5790 277.5405 15.08901057 91134,6917.694,95.434,540.791,538.327,0.0
53932.0,STARLINK-4772,PAYLOAD,2024-05-13 05:44:42,15.08945132,0.0001874,53.2177,46.5353,83.8074,276.3132,0.0027535,0.00043934,0.0,0 STARLINK-4772,1 53932U 22119AY  24134.23938156  .00043934  00000-0  27535-2 0  9995,2 53932  53.2177  46.5353 0001874  83.8074 276.3132 15.08945132 91153,6917.559,95.431,540.72,538.128,0.0
53932.0,STARLINK-4772,PAYLOAD,2024-05-13 18:27:45,15.08917891,0.000191,53.2189,44.1594,98.8237,261.2971,0.0016298,0.00025801,0.0,0 STARLINK-4772,1 53932U 22119AY  24134.76927563  .00025801  00000-0  16298-2 0  9990,2 53932  53.2189  44.1594 0001910  98.8237 261.2971 15.08917891 91239,6917.642,95.433,540.829,538.186,0.0
53932.0,STARLINK-4772,PAYLOAD,2024-05-14 00:49:16,15.08901248,0.0001877,53.2188,42.9684,116.7142,243.4042,0.00051131,7.872e-05,0.0,0 STARLINK-4772,1 53932U 22119AY  24135.03422432  .00007872  00000-0  51131-3 0  9990,2 53932  53.2188  42.9684 0001877 116.7142 243.4042 15.08901248 91275,6917.693,95.434,540.857,538.26,0.0
53932.0,STARLINK-4772,PAYLOAD,2024-05-14 10:21:34,15.08905381,0.0002071,53.2182,41.1814,57.9494,302.1699,0.0011515,0.00018119,0.0,0 STARLINK-4772,1 53932U 22119AY  24135.43165349  .00018119  00000-0  11515-2 0  9992,2 53932  53.2182  41.1814 0002071  57.9494 302.1699 15.08905381 91765,6917.681,95.433,540.978,538.113,0.0
53932.0,STARLINK-4772,PAYLOAD,2024-05-14 21:29:17,15.08836514,0.0001208,53.2177,39.1025,69.7576,290.3545,0.00037688,5.715e-05,0.0,0 STARLINK-4772,1 53932U 22119AY  24135.89533773  .00005715  00000-0  37688-3 0  9990,2 53932  53.2177  39.1025 0001208  69.7576 290.3545 15.08836514 91830,6917.891,95.438,540.592,538.92,0.0
53932.0,STARLINK-4772,PAYLOAD,2024-05-15 00:40:03,15.0884113,0.0001256,53.2177,38.5096,94.0677,266.0458,0.0019509,0.00030898,0.0,0 STARLINK-4772,1 53932U 22119AY  24136.02781820  .00030898  00000-0  19509-2 0  9995,2 53932  53.2177  38.5096 0001256  94.0677 266.0458 15.08841130 91425,6917.877,95.437,540.611,538.873,0.0
53932.0,STARLINK-4772,PAYLOAD,2024-05-15 10:12:22,15.08870834,0.0001174,53.2168,36.723,67.8506,292.261,0.0028962,0.00046146,0.0,0 STARLINK-4772,1 53932U 22119AY  24136.42525588  .00046146  00000-0  28962-2 0  9992,2 53932  53.2168  36.7230 0001174  67.8506 292.2610 15.08870834 91911,6917.786,95.436,540.463,538.839,0.0
53932.0,STARLINK-4772,PAYLOAD,2024-05-15 21:20:04,15.08841337,0.0001534,53.2179,34.6431,89.4742,270.6426,0.0005665,8.74e-05,0.0,0 STARLINK-4772,1 53932U 22119AY  24136.88894147  .00008740  00000-0  56650-3 0  9996,2 53932  53.2179  34.6431 0001534  89.4742 270.6426 15.08841337 91556,6917.876,95.437,540.803,538.68,0.0
53932.0,STARLINK-4772,PAYLOAD,2024-05-15 22:55:27,15.08837657,0.0001359,53.2177,34.3462,83.6546,276.4601,0.0016565,0.00026172,0.0,0 STARLINK-4772,1 53932U 22119AY  24136.95518318  .00026172  00000-0  16565-2 0  9996,2 53932  53.2177  34.3462 0001359  83.6546 276.4601 15.08837657 91995,6917.888,95.438,540.693,538.812,0.0
53932.0,STARLINK-4772,PAYLOAD,2024-05-16 10:03:09,15.08866364,0.0001268,53.2174,32.2641,86.4924,273.6213,0.002119,0.00033621,0.0,0 STARLINK-4772,1 53932U 22119AY  24137.41885924  .00033621  00000-0  21190-2 0  9995,2 53932  53.2174  32.2641 0001268  86.4924 273.6213 15.08866364 91634,6917.8,95.436,540.542,538.788,0.0
53932.0,STARLINK-4772,PAYLOAD,2024-05-17 09:53:55,15.08857938,4.32e-05,53.2152,27.7986,244.4238,115.6709,0.00094651,0.00014815,0.0,0 STARLINK-4772,1 53932U 22119AY  24138.41244853  .00014815  00000-0  94651-3 0  9993,2 53932  53.2152  27.7986 0000432 244.4238 115.6709 15.08857938 91785,6917.826,95.436,539.989,539.392,0.0
53932.0,STARLINK-4772,PAYLOAD,2024-05-17 16:15:29,15.08827509,0.0003192,53.2174,26.6154,76.8473,283.2875,-0.00027984,-4.739e-05,0.0,0 STARLINK-4772,1 53932U 22119AY  24138.67742376 -.00004739  00000-0 -27984-3 0  9995,2 53932  53.2174  26.6154 0003192  76.8473 283.2875 15.08827509 91820,6917.919,95.438,541.992,537.575,0.0
53932.0,STARLINK-4772,PAYLOAD,2024-05-17 22:37:02,15.08816398,0.0002298,53.2167,25.4265,82.9226,277.2027,0.0015541,0.00024516,0.0,0 STARLINK-4772,1 53932U 22119AY  24138.94239161  .00024516  00000-0  15541-2 0  9996,2 53932  53.2167  25.4265 0002298  82.9226 277.2027 15.08816398 92290,6917.953,95.439,541.407,538.228,0.0
53932.0,STARLINK-4772,PAYLOAD,2024-05-18 09:44:44,15.08859954,0.0001447,53.2177,23.3434,75.2343,284.881,0.0020019,0.00031733,0.0,0 STARLINK-4772,1 53932U 22119AY  24139.40606848  .00031733  00000-0  20019-2 0  9993,2 53932  53.2177  23.3434 0001447  75.2343 284.8810 15.08859954 91935,6917.819,95.436,540.685,538.683,0.0
53932.0,STARLINK-4772,PAYLOAD,2024-05-18 20:52:26,15.08838647,0.0001651,53.2191,21.2574,93.0471,267.071,0.00058452,9.027e-05,0.0,0 STARLINK-4772,1 53932U 22119AY  24139.86975176  .00009027  00000-0  58452-3 0  9990,2 53932  53.2191  21.2574 0001651  93.0471 267.0710 15.08838647 92007,6917.885,95.438,540.892,538.607,0.0
53932.0,STARLINK-4772,PAYLOAD,2024-05-18 22:27:49,15.0883521,0.0001224,53.2183,20.9606,88.9915,271.1218,0.00050946,7.828e-05,0.0,0 STARLINK-4772,1 53932U 22119AY  24139.93599206  .00007828  00000-0  50946-3 0  9991,2 53932  53.2183  20.9606 0001224  88.9915 271.1218 15.08835210 92442,6917.895,95.438,540.607,538.913,0.0
53932.0,STARLINK-4772,PAYLOAD,2024-05-19 20:43:13,15.08839601,0.0001262,53.2166,16.7987,80.9537,279.1597,0.00013629,1.882e-05,0.0,0 STARLINK-4772,1 53932U 22119AY  24140.86335256  .00001882  00000-0  13629-3 0  9999,2 53932  53.2166  16.7987 0001262  80.9537 279.1597 15.08839601 92156,6917.882,95.438,540.62,538.874,0.0
53932.0,STARLINK-4772,PAYLOAD,2024-05-20 01:29:23,15.08839507,0.0001299,53.2171,15.9066,83.598,276.516,0.00016456,2.332e-05,0.0,0 STARLINK-4772,1 53932U 22119AY  24141.06207372  .00002332  00000-0  16456-3 0  9991,2 53932  53.2171  15.9066 0001299  83.5980 276.5160 15.08839507 92615,6917.882,95.438,540.646,538.848,0.0
53932.0,STARLINK-4772,PAYLOAD,2024-05-20 20:33:58,15.08872253,0.0001651,53.2174,12.3371,79.3247,280.7931,-0.00099099,-0.00016039,0.0,0 STARLINK-4772,1 53932U 22119AY  24141.85693218 -.00016039  00000-0 -99099-3 0  9991,2 53932  53.2174  12.3371 0001651  79.3247 280.7931 15.08872253 92303,6917.782,95.436,540.789,538.505,0.0
53932.0,STARLINK-4772,PAYLOAD,2024-05-20 22:09:23,15.08839445,0.0001262,53.2171,12.0397,85.4681,274.6455,6.2279e-05,7.03e-06,0.0,0 STARLINK-4772,1 53932U 22119AY  24141.92319372  .00000703  00000-0  62279-4 0  9995,2 53932  53.2171  12.0397 0001262  85.4681 274.6455 15.08839445 92313,6917.882,95.438,540.62,538.874,0.0
53932.0,STARLINK-4772,PAYLOAD,2024-05-21 22:00:11,15.08837466,0.0001253,53.2179,7.5792,99.4121,260.7013,0.00010717,1.418e-05,0.0,0 STARLINK-4772,1 53932U 22119AY  24142.91679417  .00001418  00000-0  10717-3 0  9997,2 53932  53.2179   7.5792 0001253  99.4121 260.7013 15.08837466 92893,6917.888,95.438,540.62,538.886,0.0
